BEESAT-4                
1 41619U 16040W   21238.63643981  .00002990  00000-0  11930-3 0  9995
2 41619  97.2633 292.7542 0012370  85.2361 275.0290 15.25868015275710
CAS-2T & KS-1Q          
1 41847U 16066G   21238.74217035  .00000119  00000-0  28097-4 0  9999
2 41847  98.5955 298.1391 0365321  10.7541 350.1194 14.38228258251989
NAYIF-1 (EO-88)         
1 42017U 17008BX  21238.74568219  .00003340  00000-0  12282-3 0  9996
2 42017  97.3105 305.0862 0005137 202.6292 157.4722 15.28565425251991
ZHUHAI-1 02 (CAS-4B)    
1 42759U 17034B   21238.86667731  .00000292  00000-0  30807-4 0  9997
2 42759  43.0169 153.9413 0009334 251.3534 219.7167 15.10319106231792
ZHUHAI-1 01 (CAS-4A)    
1 42761U 17034D   21238.85325229  .00000306  00000-0  31569-4 0  9994
2 42761  43.0177 153.0176 0009706 252.7499 216.6338 15.10407201231799
MAX VALIER SAT          
1 42778U 17036P   21238.70265741  .00001622  00000-0  70076-4 0  9998
2 42778  97.2495 284.9980 0010004 291.5213  68.4958 15.23843136231983
RADFXSAT (FOX-1B)       
1 43017U 17073E   21238.66612225  .00001251  00000-0  10014-3 0  9997
2 43017  97.6987 139.8490 0256052  71.3626 291.5203 14.79661282203500
FOX-1D (AO-92)          
1 43137U 18004AC  21238.65492796  .00001866  00000-0  76464-4 0  9997
2 43137  97.4026 311.9658 0007793 333.9033  26.1811 15.25514595201364
DIWATA-2B               
1 43678U 18084H   21238.88318379 -.00000177  00000-0 -11749-4 0  9995
2 43678  97.9327   4.5594 0009845 170.0903 190.0498 14.91776212153932
ES'HAIL 2               
1 43700U 18090A   21238.54630561  .00000133  00000-0  00000-0 0  9995
2 43700   0.0171 162.0589 0002332  30.3149   5.1377  1.00274733 10074
FOX-1CLIFF (AO-95)      
1 43770U 18099N   21238.17528905  .00000086  00000-0  12895-4 0  9994
2 43770  97.6604 306.8093 0014505 178.9310 181.1944 14.95395919148879
ITASAT 1                
1 43786U 18099AE  21238.75007642  .00000817  00000-0  78409-4 0  9990
2 43786  97.6626 308.0980 0015446 169.6109 190.5434 14.95683007148996
JY1SAT (JO-97)          
1 43803U 18099AX  21238.70197988  .00000106  00000-0  14515-4 0  9997
2 43803  97.6587 307.7955 0015258 170.0102 190.1425 14.95944070148996
UWE-4                   
1 43880U 18111E   21238.70521484  .00000582  00000-0  55610-4 0  9998
2 43880  97.6808 145.2233 0010708 223.5909 136.4467 14.96954760145595
NEXUS (FO-99)           
1 43937U 19003F   21238.35836956  .00002670  00000-0  10554-3 0  9993
2 43937  97.1709 278.7316 0024618 122.3411 238.0216 15.26053156144926
PSAT2 (NO-104)          
1 44354U 19036R   21238.47366071  .00010476  00000-0  13215-3 0  9992
2 44354  28.5302  19.3718 0316514 316.6496  40.9601 15.15830599119609
BRICSAT2 (NO-103)       
1 44355U 19036S   21238.54513537  .00032127 -56124-5  31113-3 0  9990
2 44355  28.5248 321.3710 0245777  51.2247 311.0040 15.34569777120198
JAISAT-1                
1 44419U 19038F   21238.63575711  .00001772  00000-0  10084-3 0  9997
2 44419  97.5943 203.1092 0022664  71.6829 288.6865 15.13964473118412
DUCHIFAT-3              
1 44854U 19089C   21238.84261583  .00000501  00000-0  46338-4 0  9999
2 44854  36.9665  44.3390 0009438 341.6862  18.3577 14.99585227 93677
CAS-6 (TO-108)          
1 44881U 19093C   21238.77846918  .00000067  00000-0  15322-4 0  9993
2 44881  97.9218 316.8327 0016426  66.2157 294.0775 14.81473249 91141
RS-44 & BREEZE-KM R/B   
1 44909U 19096E   21238.59984631 -.00000010  00000-0 -77187-4 0  9999
2 44909  82.5177  66.1959 0216456 289.2176  68.5617 12.79710552 77795
ORBITAL FACTORY 2 (OF-2)
1 45113U 19071C   21238.73579874  .00004251  00000-0  12889-3 0  9991
2 45113  51.6424  56.6074 0011783 184.9667 175.1201 15.36288323 87976
HUSKYSAT-1 (HO-107)     
1 45119U 19071J   21238.74685041  .00004225  00000-0  12824-3 0  9992
2 45119  51.6419  55.9242 0011223 181.4565 178.6387 15.36276605 87976
BY70-2                  
1 45857U 20042B   21238.75596468  .00001106  00000-0  16335-3 0  9992
2 45857  97.9819 313.7732 0010448 356.2692   3.8436 14.77214141 61924
SALSAT                  
1 46495U 20068K   21238.94098892  .00000013  00000-0  55182-5 0  9999
2 46495  97.6968 176.0316 0016175 187.2513 172.8474 15.03524209 49924
BY70-3                  
1 46839U 20079N   21238.71052900  .00002983  00000-0  92531-4 0  9994
2 46839  97.2366 311.1792 0005821 324.7819 156.2613 15.34162858 44970
RADFXSAT-2 (AO-109)     
1 47311U 21002C   21238.72694861  .00001497  00000-0  75930-4 0  9999
2 47311  60.6864  28.0867 0041745  84.3758 276.2087 15.21894181 33564
UVSQ-SAT                
1 47438U 21006AB  21238.67362703  .00001157  00000-0  68583-4 0  9993
2 47438  97.4819 298.6264 0011904 209.1119 150.9450 15.13295746 32676
DIY-1 (ARDUIQUBE)       
1 47963U 21022AH  21238.45973425  .00003122  00000-0  20840-3 0  9996
2 47963  97.5512 139.5453 0021453  67.0503 293.2985 15.07572200 22445
